NORAD_CAT_ID,OBJECT_NAME,OBJECT_TYPE,EPOCH,MEAN_MOTION,ECCENTRICITY,INCLINATION,RA_OF_ASC_NODE,ARG_OF_PERICENTER,MEAN_ANOMALY,BSTAR,MEAN_MOTION_DOT,MEAN_MOTION_DDOT,TLE_LINE0,TLE_LINE1,TLE_LINE2,SEMIMAJOR_AXIS,PERIOD,APOGEE,PERIGEE,DECAYED
53630.0,STARLINK-4598,PAYLOAD,2022-11-18 14:00:01,15.27269711,0.0001365,53.2171,243.5723,55.0971,7.7898,-0.046763,-0.01167429,0.0,0 STARLINK-4598,1 53630U 22104AU  22322.58334491 -.01167429  00000-0 -46763-1 0  9993,2 53630  53.2171 243.5723 0001365  55.0971   7.7898 15.27269711 12964,6862.115,94.286,484.917,483.044,0.0
53630.0,STARLINK-4598,PAYLOAD,2022-11-18 22:00:00,15.2647977,0.0001365,53.2168,242.034,67.7125,28.3907,-0.049292,-0.011986,0.0,0 STARLINK-4598,1 53630U 22104AU  22322.91667824 -.01198600  00000-0 -49292-1 0  9994,2 53630  53.2168 242.0340 0001365  67.7125  28.3907 15.26479770  1303,6864.483,94.335,487.285,485.411,0.0
53630.0,STARLINK-4598,PAYLOAD,2022-11-19 14:00:01,15.24870441,0.0001629,53.2169,238.9631,51.5843,108.0335,-0.05279,-0.01220701,0.0,0 STARLINK-4598,1 53630U 22104AU  22323.58334491 -.01220701  00000-0 -52790-1 0  9994,2 53630  53.2169 238.9631 0001629  51.5843 108.0335 15.24870441  1301,6869.312,94.434,492.296,490.057,0.0
53630.0,STARLINK-4598,PAYLOAD,2022-11-19 16:00:00,15.24626053,0.0001524,53.217,238.5792,55.4314,201.8752,-0.05073,-0.01168759,0.0,0 STARLINK-4598,1 53630U 22104AU  22323.66667824 -.01168759  00000-0 -50730-1 0  9998,2 53630  53.2170 238.5792 0001524  55.4314 201.8752 15.24626053 13123,6870.045999999999,94.449,492.958,490.864,0.0
53630.0,STARLINK-4598,PAYLOAD,2022-11-19 22:00:00,15.2402907,0.0001425,53.2169,237.4305,71.2172,118.7119,-0.052471,-0.011859,0.0,0 STARLINK-4598,1 53630U 22104AU  22323.91667824 -.01185900  00000-0 -52471-1 0  9997,2 53630  53.2169 237.4305 0001425  71.2172 118.7119 15.24029070  1303,6871.839,94.486,494.684,492.725,0.0
53630.0,STARLINK-4598,PAYLOAD,2022-11-20 14:00:01,15.22372355,0.0001431,53.2173,234.3703,60.0181,187.5836,-0.053064,-0.01144794,0.0,0 STARLINK-4598,1 53630U 22104AU  22324.58334491 -.01144794  00000-0 -53064-1 0  9997,2 53630  53.2173 234.3703 0001431  60.0181 187.5836 15.22372355  1304,6876.824000000001,94.589,499.673,497.705,0.0
53630.0,STARLINK-4598,PAYLOAD,2022-11-20 22:00:00,15.21560627,0.0001455,53.2176,232.8444,59.1305,215.8317,-0.054501,-0.01147622,0.0,0 STARLINK-4598,1 53630U 22104AU  22324.91667824 -.01147622  00000-0 -54501-1 0  9993,2 53630  53.2176 232.8444 0001455  59.1305 215.8317 15.21560627 13318,6879.27,94.64,502.136,500.134,0.0
53630.0,STARLINK-4598,PAYLOAD,2022-11-21 14:00:01,15.19949181,0.0001419999999999,53.2168,229.7956,52.0382,274.7073,-0.058333,-0.01169568,0.0,0 STARLINK-4598,1 53630U 22104AU  22325.58334491 -.01169568  00000-0 -58333-1 0  9998,2 53630  53.2168 229.7956 0001420  52.0382 274.7073 15.19949181  1303,6884.130999999999,94.74,506.974,505.019,0.0
53630.0,STARLINK-4598,PAYLOAD,2022-11-21 22:00:00,15.19155007,0.0001239,53.2169,228.2746,73.2876,277.8759,-0.061137,-0.01195391,0.0,0 STARLINK-4598,1 53630U 22104AU  22325.91667824 -.01195391  00000-0 -61137-1 0  9993,2 53630  53.2169 228.2746 0001239  73.2876 277.8759 15.19155007 13478,6886.53,94.79,509.24800000000016,507.542,0.0
53630.0,STARLINK-4598,PAYLOAD,2022-11-22 00:00:00,15.18922858,0.0001385999999999,53.2171,227.8954,67.6925,19.4404,-0.059476,-0.01158212,0.0,0 STARLINK-4598,1 53630U 22104AU  22326.00001157 -.01158212  00000-0 -59476-1 0  9999,2 53630  53.2171 227.8954 0001386  67.6925  19.4404 15.18922858  1303,6887.232,94.804,510.051,508.142,0.0
53630.0,STARLINK-4598,PAYLOAD,2022-11-22 14:00:01,15.17497095,0.0001516,53.2168,225.2373,49.585,347.5818,-0.061811,-0.01155204,0.0,0 STARLINK-4598,1 53630U 22104AU  22326.58335648 -.01155204  00000-0 -61811-1 0  9991,2 53630  53.2168 225.2373 0001516  49.5850 347.5818 15.17497095 13572,6891.545,94.893,514.455,512.365,0.0
53630.0,STARLINK-4598,PAYLOAD,2022-11-22 22:00:00,15.16713498,0.0001339,53.2168,223.7226,69.0424,349.5404,-0.065647,-0.01195917,0.0,0 STARLINK-4598,1 53630U 22104AU  22326.91667824 -.01195917  00000-0 -65647-1 0  9998,2 53630  53.2168 223.7226 0001339  69.0424 349.5404 15.16713498  1307,6893.918000000002,94.942,516.707,514.86,0.0
53630.0,STARLINK-4598,PAYLOAD,2022-11-23 14:00:01,15.1505279,0.0001601,53.2167,220.6965,51.7972,46.8592,-0.066024,-0.01150768,0.0,0 STARLINK-4598,1 53630U 22104AU  22327.58334491 -.01150768  00000-0 -66024-1 0  9998,2 53630  53.2167 220.6965 0001601  51.7972  46.8592 15.15052790  1305,6898.955,95.046,521.925,519.716,0.0
53630.0,STARLINK-4598,PAYLOAD,2022-11-23 16:00:00,15.14847007,0.0001629,53.217,220.3187,58.6345,134.7551,-0.066197,-0.01147334,0.0,0 STARLINK-4598,1 53630U 22104AU  22327.66667824 -.01147334  00000-0 -66197-1 0  9992,2 53630  53.2170 220.3187 0001629  58.6345 134.7551 15.14847007 13736,6899.58,95.059,522.569,520.321,0.0
53630.0,STARLINK-4598,PAYLOAD,2022-11-23 22:00:00,15.1426731,0.0001446,53.2167,219.1875,68.7673,48.4363,-0.069986,-0.01189485,0.0,0 STARLINK-4598,1 53630U 22104AU  22327.91667824 -.01189485  00000-0 -69986-1 0  9992,2 53630  53.2167 219.1875 0001446  68.7673  48.4363 15.14267310  1300,6901.340999999999,95.095,524.2040000000002,522.2080000000002,0.0
53630.0,STARLINK-4598,PAYLOAD,2022-11-24 14:00:01,15.12627704,0.0001665,53.2165,216.1726,53.6031,97.7958,-0.072162,-0.01172467,0.0,0 STARLINK-4598,1 53630U 22104AU  22328.58334491 -.01172467  00000-0 -72162-1 0  9999,2 53630  53.2165 216.1726 0001665  53.6031  97.7958 15.12627704  1306,6906.3269999999975,95.199,529.342,527.0419999999998,0.0
53630.0,STARLINK-4598,PAYLOAD,2022-11-24 22:00:00,15.11812674,0.0001522,53.2166,214.6693,69.4848,97.5425,-0.0737169999999999,-0.0117077,0.0,0 STARLINK-4598,1 53630U 22104AU  22328.91667824 -.01170770  00000-0 -73717-1 0  9997,2 53630  53.2166 214.6693 0001522  69.4848  97.5425 15.11812674  1304,6908.809,95.25,531.726,529.622,0.0
53630.0,STARLINK-4598,PAYLOAD,2022-11-25 14:00:01,15.10170385,0.0001498,53.2164,211.6657,51.3469,144.01,-0.0757029999999999,-0.01150252,0.0,0 STARLINK-4598,1 53630U 22104AU  22329.58334491 -.01150252  00000-0 -75703-1 0  9992,2 53630  53.2164 211.6657 0001498  51.3469 144.0100 15.10170385  1303,6913.816999999999,95.353,536.7180000000002,534.646,0.0
53630.0,STARLINK-4598,PAYLOAD,2022-11-25 22:00:00,15.09253624,0.0001273,53.2165,210.1682,62.0145,146.0407,-0.035181,-0.00532109,0.0,0 STARLINK-4598,1 53630U 22104AU  22329.91667824 -.00532109  00000-0 -35181-1 0  9998,2 53630  53.2165 210.1682 0001273  62.0145 146.0407 15.09253624 14073,6916.616,95.411,539.362,537.601,0.0
53630.0,STARLINK-4598,PAYLOAD,2022-11-26 00:00:00,15.09080043,0.0001301,53.217,209.7945,61.4742,239.6083,-0.022494,-0.00343802,0.0,0 STARLINK-4598,1 53630U 22104AU  22330.00001157 -.00343802  00000-0 -22494-1 0  9994,2 53630  53.2170 209.7945 0001301  61.4742 239.6083 15.09080043  1307,6917.147,95.422,539.9119999999998,538.112,0.0
53630.0,STARLINK-4598,PAYLOAD,2022-11-26 14:00:01,15.0884848,0.0001605,53.2128,207.1729,62.1816,169.1552,0.0027553,0.00043846,0.0,0 STARLINK-4598,1 53630U 22104AU  22330.58334491  .00043846  00000-0  27553-2 0  9992,2 53630  53.2128 207.1729 0001605  62.1816 169.1552 15.08848480 14172,6917.854,95.437,540.83,538.609,0.0
53630.0,STARLINK-4598,PAYLOAD,2022-11-26 22:00:00,15.08890378,0.0001724,53.2134,205.678,57.2796,185.6807,-0.0033174,-0.00052771,0.0,0 STARLINK-4598,1 53630U 22104AU  22330.91667824 -.00052771  00000-0 -33174-2 0  9993,2 53630  53.2134 205.6780 0001724  57.2796 185.6807 15.08890378  1303,6917.726,95.434,540.784,538.399,0.0
53630.0,STARLINK-4598,PAYLOAD,2022-11-27 06:00:00,15.08862275,0.0001636999999999,53.2133,204.1812,53.8173,200.7784,-0.0011649,-0.00018791,0.0,0 STARLINK-4598,1 53630U 22104AU  22331.25001157 -.00018791  00000-0 -11649-2 0  9999,2 53630  53.2133 204.1812 0001637  53.8173 200.7784 15.08862275 14274,6917.812,95.436,540.81,538.545,0.0
53630.0,STARLINK-4598,PAYLOAD,2022-11-27 14:00:01,15.08840246,0.0001466,53.2135,202.6832,60.0112,206.1994,-0.00046333,-7.654e-05,0.0,0 STARLINK-4598,1 53630U 22104AU  22331.58334491 -.00007654  00000-0 -46333-3 0  9990,2 53630  53.2135 202.6832 0001466  60.0112 206.1994 15.08840246  1301,6917.88,95.438,540.759,538.73,0.0
53630.0,STARLINK-4598,PAYLOAD,2022-11-27 22:00:00,15.08829135,0.000158,53.2136,201.1885,53.2571,224.5478,-0.00061841,-0.00010114,0.0,0 STARLINK-4598,1 53630U 22104AU  22331.91667824 -.00010114  00000-0 -61841-3 0  9992,2 53630  53.2136 201.1885 0001580  53.2571 224.5478 15.08829135  1309,6917.9140000000025,95.438,540.872,538.686,0.0
53630.0,STARLINK-4598,PAYLOAD,2022-11-28 14:00:01,15.08822843,0.000143,53.2137,198.1939,60.4574,240.5189,0.0024984,0.0003968,0.0,0 STARLINK-4598,1 53630U 22104AU  22332.58334491  .00039680  00000-0  24984-2 0  9990,2 53630  53.2137 198.1939 0001430  60.4574 240.5189 15.08822843 14470,6917.933000000001,95.439,540.7869999999998,538.809,0.0
53630.0,STARLINK-4598,PAYLOAD,2022-11-28 22:00:01,15.08843192,0.0001588,53.2137,196.6991,54.3471,258.2846,-0.00045935,-7.592e-05,0.0,0 STARLINK-4598,1 53630U 22104AU  22332.91668981 -.00007592  00000-0 -45935-3 0  9990,2 53630  53.2137 196.6991 0001588  54.3471 258.2846 15.08843192  1307,6917.871,95.437,540.8340000000002,538.637,0.0
53630.0,STARLINK-4598,PAYLOAD,2022-11-29 06:00:00,15.08863785,0.0001531999999999,53.2134,195.2022,53.7892,270.3721,-0.0020186,-0.00032291,0.0,0 STARLINK-4598,1 53630U 22104AU  22333.25001157 -.00032291  00000-0 -20186-2 0  9998,2 53630  53.2134 195.2022 0001532  53.7892 270.3721 15.08863785 14584,6917.808000000001,95.436,540.732,538.613,0.0
53630.0,STARLINK-4598,PAYLOAD,2022-11-29 14:00:01,15.08837148,0.0001448,53.2137,193.7046,62.4023,273.4326,0.0021335,0.00033827,0.0,0 STARLINK-4598,1 53630U 22104AU  22333.58335648  .00033827  00000-0  21335-2 0  9990,2 53630  53.2137 193.7046 0001448  62.4023 273.4326 15.08837148  1300,6917.889,95.438,540.756,538.752,0.0
